[{"OBJECT_NAME":"FENGYUN 1C DEB","OBJECT_ID":"1999-025BEA","EPOCH":"2026-03-02T16:25:17.128128","MEAN_MOTION":14.0263481,"ECCENTRICITY":0.01371031,"INCLINATION":99.3994,"RA_OF_ASC_NODE":78.0295,"ARG_OF_PERICENTER":337.1802,"MEAN_ANOMALY":87.0637,"EPHEMERIS_TYPE":0,"CLASSIFICATION_TYPE":"U","NORAD_CAT_ID":31032,"ELEMENT_SET_NO":999,"REV_AT_EPOCH":96102,"BSTAR":0.0019024979,"MEAN_MOTION_DOT":3.141e-5,"MEAN_MOTION_DDOT":0},{"OBJECT_NAME":"FENGYUN 1C DEB","OBJECT_ID":"1999-025BEB","EPOCH":"2026-03-02T04:19:42.254688","MEAN_MOTION":14.27599911,"ECCENTRICITY":0.0151688,"INCLINATION":98.4494,"RA_OF_ASC_NODE":41.846,"ARG_OF_PERICENTER":236.8448,"MEAN_ANOMALY":185.9272,"EPHEMERIS_TYPE":0,"CLASSIFICATION_TYPE":"U","NORAD_CAT_ID":31033,"ELEMENT_SET_NO":999,"REV_AT_EPOCH":98479,"BSTAR":0.00020265193,"MEAN_MOTION_DOT":5.18e-6,"MEAN_MOTION_DDOT":0},{"OBJECT_NAME":"FENGYUN 1C DEB","OBJECT_ID":"1999-025BEE","EPOCH":"2026-03-03T04:20:33.374112","MEAN_MOTION":14.49270598,"ECCENTRICITY":0.0138349,"INCLINATION":98.9147,"RA_OF_ASC_NODE":178.1941,"ARG_OF_PERICENTER":23.5011,"MEAN_ANOMALY":93.5391,"EPHEMERIS_TYPE":0,"CLASSIFICATION_TYPE":"U","NORAD_CAT_ID":31036,"ELEMENT_SET_NO":999,"REV_AT_EPOCH":58472,"BSTAR":0.00017114,"MEAN_MOTION_DOT":6.8e-6,"MEAN_MOTION_DDOT":0},{"OBJECT_NAME":"FENGYUN 1C DEB","OBJECT_ID":"1999-025BEG","EPOCH":"2026-03-02T04:42:35.324352","MEAN_MOTION":14.4620094,"ECCENTRICITY":0.00831414,"INCLINATION":99.005,"RA_OF_ASC_NODE":155.1452,"ARG_OF_PERICENTER":352.8263,"MEAN_ANOMALY":7.1731,"EPHEMERIS_TYPE":0,"CLASSIFICATION_TYPE":"U","NORAD_CAT_ID":31038,"ELEMENT_SET_NO":999,"REV_AT_EPOCH":99383,"BSTAR":0.00047062462,"MEAN_MOTION_DOT":1.704e-5,"MEAN_MOTION_DDOT":0},{"OBJECT_NAME":"FENGYUN 1C DEB","OBJECT_ID":"1999-025BEJ","EPOCH":"2026-03-02T22:35:45.905856","MEAN_MOTION":14.17808032,"ECCENTRICITY":0.0061902,"INCLINATION":98.6664,"RA_OF_ASC_NODE":54.798,"ARG_OF_PERICENTER":325.4685,"MEAN_ANOMALY":90.3436,"EPHEMERIS_TYPE":0,"CLASSIFICATION_TYPE":"U","NORAD_CAT_ID":31040,"ELEMENT_SET_NO":999,"REV_AT_EPOCH":97843,"BSTAR":0.00043787,"MEAN_MOTION_DOT":8.67e-6,"MEAN_MOTION_DDOT":0},{"OBJECT_NAME":"FENGYUN 1C DEB","OBJECT_ID":"1999-025BEK","EPOCH":"2026-03-03T01:34:36.198336","MEAN_MOTION":14.18641285,"ECCENTRICITY":0.0088213,"INCLINATION":99.1946,"RA_OF_ASC_NODE":98.6366,"ARG_OF_PERICENTER":95.4993,"MEAN_ANOMALY":265.625,"EPHEMERIS_TYPE":0,"CLASSIFICATION_TYPE":"U","NORAD_CAT_ID":31041,"ELEMENT_SET_NO":999,"REV_AT_EPOCH":96628,"BSTAR":0.002075,"MEAN_MOTION_DOT":4.426e-5,"MEAN_MOTION_DDOT":0},{"OBJECT_NAME":"FENGYUN 1C DEB","OBJECT_ID":"1999-025BEM","EPOCH":"2026-03-02T13:54:54.045216","MEAN_MOTION":14.08577672,"ECCENTRICITY":0.0042373,"INCLINATION":98.7605,"RA_OF_ASC_NODE":82.1164,"ARG_OF_PERICENTER":136.7716,"MEAN_ANOMALY":351.5197,"EPHEMERIS_TYPE":0,"CLASSIFICATION_TYPE":"U","NORAD_CAT_ID":31043,"ELEMENT_SET_NO":999,"REV_AT_EPOCH":97111,"BSTAR":0.00055357,"MEAN_MOTION_DOT":9.17e-6,"MEAN_MOTION_DDOT":0},{"OBJECT_NAME":"FENGYUN 1C DEB","OBJECT_ID":"1999-025BEQ","EPOCH":"2026-03-02T20:08:50.124192","MEAN_MOTION":14.68415494,"ECCENTRICITY":0.00478895,"INCLINATION":98.965,"RA_OF_ASC_NODE":193.8256,"ARG_OF_PERICENTER":215.4444,"MEAN_ANOMALY":297.0955,"EPHEMERIS_TYPE":0,"CLASSIFICATION_TYPE":"U","NORAD_CAT_ID":31046,"ELEMENT_SET_NO":999,"REV_AT_EPOCH":97816,"BSTAR":0.0066535189,"MEAN_MOTION_DOT":0.00039323,"MEAN_MOTION_DDOT":0},{"OBJECT_NAME":"FENGYUN 1C DEB","OBJECT_ID":"1999-025BER","EPOCH":"2026-03-02T23:22:08.812704","MEAN_MOTION":14.13995558,"ECCENTRICITY":0.0024849,"INCLINATION":98.7059,"RA_OF_ASC_NODE":62.2848,"ARG_OF_PERICENTER":313.2274,"MEAN_ANOMALY":103.674,"EPHEMERIS_TYPE":0,"CLASSIFICATION_TYPE":"U","NORAD_CAT_ID":31047,"ELEMENT_SET_NO":999,"REV_AT_EPOCH":97493,"BSTAR":0.00047602,"MEAN_MOTION_DOT":8.64e-6,"MEAN_MOTION_DDOT":0},{"OBJECT_NAME":"FENGYUN 1C DEB","OBJECT_ID":"1999-025BET","EPOCH":"2026-02-05T05:54:57.067776","MEAN_MOTION":14.04329733,"ECCENTRICITY":0.0050708,"INCLINATION":98.8036,"RA_OF_ASC_NODE":50.2725,"ARG_OF_PERICENTER":338.2361,"MEAN_ANOMALY":21.6652,"EPHEMERIS_TYPE":0,"CLASSIFICATION_TYPE":"U","NORAD_CAT_ID":31049,"ELEMENT_SET_NO":999,"REV_AT_EPOCH":61880,"BSTAR":0.00056863,"MEAN_MOTION_DOT":8.72e-6,"MEAN_MOTION_DDOT":0},{"OBJECT_NAME":"FENGYUN 1C DEB","OBJECT_ID":"1999-025BEV","EPOCH":"2026-02-23T20:39:07.436736","MEAN_MOTION":14.03102683,"ECCENTRICITY":0.00514502,"INCLINATION":98.811,"RA_OF_ASC_NODE":88.1127,"ARG_OF_PERICENTER":292.3137,"MEAN_ANOMALY":67.258,"EPHEMERIS_TYPE":0,"CLASSIFICATION_TYPE":"U","NORAD_CAT_ID":31051,"ELEMENT_SET_NO":999,"REV_AT_EPOCH":64844,"BSTAR":0.00027904618,"MEAN_MOTION_DOT":3.96e-6,"MEAN_MOTION_DDOT":0},{"OBJECT_NAME":"FENGYUN 1C DEB","OBJECT_ID":"1999-025BEX","EPOCH":"2026-02-26T02:55:08.260032","MEAN_MOTION":13.76174111,"ECCENTRICITY":0.0306373,"INCLINATION":98.7952,"RA_OF_ASC_NODE":179.0033,"ARG_OF_PERICENTER":253.0332,"MEAN_ANOMALY":103.7034,"EPHEMERIS_TYPE":0,"CLASSIFICATION_TYPE":"U","NORAD_CAT_ID":31053,"ELEMENT_SET_NO":999,"REV_AT_EPOCH":94513,"BSTAR":0.001423377,"MEAN_MOTION_DOT":1.914e-5,"MEAN_MOTION_DDOT":0},{"OBJECT_NAME":"FENGYUN 1C DEB","OBJECT_ID":"1999-025BEY","EPOCH":"2026-03-02T23:30:05.179104","MEAN_MOTION":14.12226382,"ECCENTRICITY":0.0008725,"INCLINATION":98.6888,"RA_OF_ASC_NODE":77.5501,"ARG_OF_PERICENTER":252.7365,"MEAN_ANOMALY":172.5714,"EPHEMERIS_TYPE":0,"CLASSIFICATION_TYPE":"U","NORAD_CAT_ID":31054,"ELEMENT_SET_NO":999,"REV_AT_EPOCH":97896,"BSTAR":0.00018509,"MEAN_MOTION_DOT":2.98e-6,"MEAN_MOTION_DDOT":0},{"OBJECT_NAME":"FENGYUN 1C DEB","OBJECT_ID":"1999-025BEZ","EPOCH":"2026-03-03T01:16:53.801472","MEAN_MOTION":14.10484736,"ECCENTRICITY":0.0025327,"INCLINATION":98.7501,"RA_OF_ASC_NODE":96.164,"ARG_OF_PERICENTER":47.4024,"MEAN_ANOMALY":8.1685,"EPHEMERIS_TYPE":0,"CLASSIFICATION_TYPE":"U","NORAD_CAT_ID":31055,"ELEMENT_SET_NO":999,"REV_AT_EPOCH":97254,"BSTAR":0.000319,"MEAN_MOTION_DOT":5.27e-6,"MEAN_MOTION_DDOT":0},{"OBJECT_NAME":"FENGYUN 1C DEB","OBJECT_ID":"1999-025BFA","EPOCH":"2026-03-02T10:21:46.368288","MEAN_MOTION":14.14433737,"ECCENTRICITY":0.00267282,"INCLINATION":98.6779,"RA_OF_ASC_NODE":46.674,"ARG_OF_PERICENTER":111.5109,"MEAN_ANOMALY":40.7457,"EPHEMERIS_TYPE":0,"CLASSIFICATION_TYPE":"U","NORAD_CAT_ID":31056,"ELEMENT_SET_NO":999,"REV_AT_EPOCH":97944,"BSTAR":0.00039377744,"MEAN_MOTION_DOT":7.14e-6,"MEAN_MOTION_DDOT":0},{"OBJECT_NAME":"FENGYUN 1C DEB","OBJECT_ID":"1999-025BFB","EPOCH":"2026-02-28T09:01:46.932960","MEAN_MOTION":14.80758497,"ECCENTRICITY":0.01350922,"INCLINATION":99.2459,"RA_OF_ASC_NODE":115.5541,"ARG_OF_PERICENTER":10.1611,"MEAN_ANOMALY":350.2279,"EPHEMERIS_TYPE":0,"CLASSIFICATION_TYPE":"U","NORAD_CAT_ID":31057,"ELEMENT_SET_NO":999,"REV_AT_EPOCH":63101,"BSTAR":0.00078460999,"MEAN_MOTION_DOT":6.997e-5,"MEAN_MOTION_DDOT":0}]
