FENGYUN 1C DEB          
1 31032U 99025BEA 26061.68422602  .00003141  00000+0  19025-2 0  9996
2 31032  99.3994  78.0295 0137103 337.1802  87.0637 14.02634810961022
FENGYUN 1C DEB          
1 31033U 99025BEB 26061.18035017  .00000518  00000+0  20265-3 0  9996
2 31033  98.4494  41.8460 0151688 236.8448 185.9272 14.27599911984796
FENGYUN 1C DEB          
1 31036U 99025BEE 26062.18094183  .00000680  00000+0  17114-3 0  9998
2 31036  98.9147 178.1941 0138349  23.5011  93.5391 14.49270598584729
FENGYUN 1C DEB          
1 31038U 99025BEG 26061.19624218  .00001704  00000+0  47062-3 0  9991
2 31038  99.0050 155.1452 0083141 352.8263   7.1731 14.46200940993830
FENGYUN 1C DEB          
1 31040U 99025BEJ 26061.94150354  .00000867  00000+0  43787-3 0  9991
2 31040  98.6664  54.7980 0061902 325.4685  90.3436 14.17808032978433
FENGYUN 1C DEB          
1 31041U 99025BEK 26062.06569674  .00004426  00000+0  20750-2 0  9994
2 31041  99.1946  98.6366 0088213  95.4993 265.6250 14.18641285966285
FENGYUN 1C DEB          
1 31043U 99025BEM 26061.57979219  .00000917  00000+0  55357-3 0  9994
2 31043  98.7605  82.1164 0042373 136.7716 351.5197 14.08577672971117
FENGYUN 1C DEB          
1 31046U 99025BEQ 26061.83946903  .00039323  00000+0  66535-2 0  9992
2 31046  98.9650 193.8256 0047889 215.4444 297.0955 14.68415494978161
FENGYUN 1C DEB          
1 31047U 99025BER 26061.97371311  .00000864  00000+0  47602-3 0  9996
2 31047  98.7059  62.2848 0024849 313.2274 103.6740 14.13995558974937
FENGYUN 1C DEB          
1 31049U 99025BET 26036.24649384  .00000872  00000+0  56863-3 0  9996
2 31049  98.8036  50.2725 0050708 338.2361  21.6652 14.04329733618801
FENGYUN 1C DEB          
1 31051U 99025BEV 26054.86050274  .00000396  00000+0  27905-3 0  9997
2 31051  98.8110  88.1127 0051450 292.3137  67.2580 14.03102683648440
FENGYUN 1C DEB          
1 31053U 99025BEX 26057.12162338  .00001914  00000+0  14234-2 0  9993
2 31053  98.7952 179.0033 0306373 253.0332 103.7034 13.76174111945139
FENGYUN 1C DEB          
1 31054U 99025BEY 26061.97922661  .00000298  00000+0  18509-3 0  9999
2 31054  98.6888  77.5501 0008725 252.7365 172.5714 14.12226382978966
FENGYUN 1C DEB          
1 31055U 99025BEZ 26062.05340048  .00000527  00000+0  31900-3 0  9998
2 31055  98.7501  96.1640 0025327  47.4024   8.1685 14.10484736972545
FENGYUN 1C DEB          
1 31056U 99025BFA 26061.43178667  .00000714  00000+0  39378-3 0  9991
2 31056  98.6779  46.6740 0026728 111.5109  40.7457 14.14433737979440
FENGYUN 1C DEB          
1 31057U 99025BFB 26059.37623765  .00006997  00000+0  78461-3 0  9991
2 31057  99.2459 115.5541 0135092  10.1611 350.2279 14.80758497631010
